{"type": "FeatureCollection", "features": [ {"type": "Feature", "properties": {"norad_id": 43010, "name": "FENGYUN 3D", "group": "weather", "lat": 68.05665906823339, "lon": 168.80167334622283, "alt_km": 818.8803351260885, "timestamp": "2025-12-25T03:55:55.948868+00:00", "meta": {"OBJECT_NAME": "FENGYUN 3D", "OBJECT_ID": "2017-072A", "EPOCH": "2025-12-24T20:38:59.264160", "MEAN_MOTION": 14.19686438, "ECCENTRICITY": 0.0001528, "INCLINATION": 98.9913, "RA_OF_ASC_NODE": 325.3525, "ARG_OF_PERICENTER": 148.4324, "MEAN_ANOMALY": 211.6944, "EPHEMERIS_TYPE": 0, "CLASSIFICATION_TYPE": "U", "NORAD_CAT_ID": 43010, "ELEMENT_SET_NO": 999, "REV_AT_EPOCH": 42025, "BSTAR": -9.0401e-05, "MEAN_MOTION_DOT": -2.37e-06, "MEAN_MOTION_DDOT": 0}, "tle": {"line1": "1 43010U 17072A   25358.86040815 -.00000237  00000+0 -90401-4 0  9991", "line2": "2 43010  98.9913 325.3525 0001528 148.4324 211.6944 14.19686438420256"}}, "geometry": {"type": "Point", "coordinates": [168.80167334622283, 68.05665906823339]}}, {"type": "Feature", "properties": {"norad_id": 43013, "name": "NOAA 20 (JPSS-1)", "group": "weather", "lat": -72.77468436559809, "lon": 85.49602502499592, "alt_km": 835.7081586766953, "timestamp": "2025-12-25T03:55:55.948879+00:00", "meta": {"OBJECT_NAME": "NOAA 20 (JPSS-1)", "OBJECT_ID": "2017-073A", "EPOCH": "2025-12-24T19:58:03.384768", "MEAN_MOTION": 14.19528852, "ECCENTRICITY": 0.0002072, "INCLINATION": 98.7615, "RA_OF_ASC_NODE": 294.9973, "ARG_OF_PERICENTER": 69.8824, "MEAN_ANOMALY": 290.2575, "EPHEMERIS_TYPE": 0, "CLASSIFICATION_TYPE": "U", "NORAD_CAT_ID": 43013, "ELEMENT_SET_NO": 999, "REV_AT_EPOCH": 41973, "BSTAR": 6.2649e-05, "MEAN_MOTION_DOT": 8.8e-07, "MEAN_MOTION_DDOT": 0}, "tle": {"line1": "1 43013U 17073A   25358.83198362  .00000088  00000+0  62649-4 0  9998", "line2": "2 43013  98.7615 294.9973 0002072  69.8824 290.2575 14.19528852419739"}}, "geometry": {"type": "Point", "coordinates": [85.49602502499592, -72.77468436559809]}}, {"type": "Feature", "properties": {"norad_id": 43226, "name": "GOES 17", "group": "weather", "lat": -0.1947296683893144, "lon": 63.42732819872031, "alt_km": 35796.523490675914, "timestamp": "2025-12-25T03:55:55.948897+00:00", "meta": {"OBJECT_NAME": "GOES 17", "OBJECT_ID": "2018-022A", "EPOCH": "2025-12-24T12:40:28.511328", "MEAN_MOTION": 1.00272185, "ECCENTRICITY": 0.0003083, "INCLINATION": 0.4862, "RA_OF_ASC_NODE": 89.0612, "ARG_OF_PERICENTER": 190.9002, "MEAN_ANOMALY": 273.9584, "EPHEMERIS_TYPE": 0, "CLASSIFICATION_TYPE": "U", "NORAD_CAT_ID": 43226, "ELEMENT_SET_NO": 999, "REV_AT_EPOCH": 2867, "BSTAR": 0, "MEAN_MOTION_DOT": -1.62e-06, "MEAN_MOTION_DDOT": 0}, "tle": {"line1": "1 43226U 18022A   25358.52810777 -.00000162  00000+0  00000+0 0  9998", "line2": "2 43226   0.4862  89.0612 0003083 190.9002 273.9584  1.00272185 28677"}}, "geometry": {"type": "Point", "coordinates": [63.42732819872031, -0.1947296683893144]}}, {"type": "Feature", "properties": {"norad_id": 43491, "name": "FENGYUN 2H", "group": "weather", "lat": 1.2377712162410615, "lon": -127.73821470412784, "alt_km": 35776.52259670963, "timestamp": "2025-12-25T03:55:55.948914+00:00", "meta": {"OBJECT_NAME": "FENGYUN 2H", "OBJECT_ID": "2018-050A", "EPOCH": "2025-12-24T20:19:29.555040", "MEAN_MOTION": 1.00270525, "ECCENTRICITY": 0.00024, "INCLINATION": 2.5801, "RA_OF_ASC_NODE": 81.202, "ARG_OF_PERICENTER": 166.5651, "MEAN_ANOMALY": 230.06, "EPHEMERIS_TYPE": 0, "CLASSIFICATION_TYPE": "U", "NORAD_CAT_ID": 43491, "ELEMENT_SET_NO": 999, "REV_AT_EPOCH": 2769, "BSTAR": 0, "MEAN_MOTION_DOT": -1.09e-06, "MEAN_MOTION_DDOT": 0}, "tle": {"line1": "1 43491U 18050A   25358.84686985 -.00000109  00000+0  00000+0 0  9991", "line2": "2 43491   2.5801  81.2020 0002400 166.5651 230.0600  1.00270525 27695"}}, "geometry": {"type": "Point", "coordinates": [-127.73821470412784, 1.2377712162410615]}}, {"type": "Feature", "properties": {"norad_id": 43689, "name": "METOP-C", "group": "weather", "lat": 55.411485320327984, "lon": -110.44170643013176, "alt_km": 815.1510006028457, "timestamp": "2025-12-25T03:55:55.948937+00:00", "meta": {"OBJECT_NAME": "METOP-C", "OBJECT_ID": "2018-087A", "EPOCH": "2025-12-24T18:54:23.093856", "MEAN_MOTION": 14.21488848, "ECCENTRICITY": 6.55e-05, "INCLINATION": 98.6912, "RA_OF_ASC_NODE": 56.3718, "ARG_OF_PERICENTER": 17.2295, "MEAN_ANOMALY": 342.8904, "EPHEMERIS_TYPE": 0, "CLASSIFICATION_TYPE": "U", "NORAD_CAT_ID": 43689, "ELEMENT_SET_NO": 999, "REV_AT_EPOCH": 37005, "BSTAR": 7.7537e-05, "MEAN_MOTION_DOT": 1.26e-06, "MEAN_MOTION_DDOT": 0}, "tle": {"line1": "1 43689U 18087A   25358.78776729  .00000126  00000+0  77537-4 0  9991", "line2": "2 43689  98.6912  56.3718 0000655  17.2295 342.8904 14.21488848370052"}}, "geometry": {"type": "Point", "coordinates": [-110.44170643013176, 55.411485320327984]}}, {"type": "Feature", "properties": {"norad_id": 43823, "name": "GEO-KOMPSAT-2A", "group": "weather", "lat": 0.010563224867320446, "lon": -78.85143279385073, "alt_km": 35788.20761036805, "timestamp": "2025-12-25T03:55:55.948954+00:00", "meta": {"OBJECT_NAME": "GEO-KOMPSAT-2A", "OBJECT_ID": "2018-100A", "EPOCH": "2025-12-23T23:16:38.882208", "MEAN_MOTION": 1.00269322, "ECCENTRICITY": 3.088e-05, "INCLINATION": 0.0454, "RA_OF_ASC_NODE": 176.4118, "ARG_OF_PERICENTER": 270.2699, "MEAN_ANOMALY": 123.4879, "EPHEMERIS_TYPE": 0, "CLASSIFICATION_TYPE": "U", "NORAD_CAT_ID": 43823, "ELEMENT_SET_NO": 999, "REV_AT_EPOCH": 2587, "BSTAR": 0, "MEAN_MOTION_DOT": -3.23e-06, "MEAN_MOTION_DDOT": 0}, "tle": {"line1": "1 43823U 18100A   25357.96989447 -.00000323  00000+0  00000+0 0  9995", "line2": "2 43823   0.0454 176.4118 0000308 270.2699 123.4879  1.00269322 25870"}}, "geometry": {"type": "Point", "coordinates": [-78.85143279385073, 0.010563224867320446]}}, {"type": "Feature", "properties": {"norad_id": 44387, "name": "METEOR-M2 2", "group": "weather", "lat": -36.350441933525005, "lon": -14.334274525567638, "alt_km": 818.3580921832063, "timestamp": "2025-12-25T03:55:55.948967+00:00", "meta": {"OBJECT_NAME": "METEOR-M2 2", "OBJECT_ID": "2019-038A", "EPOCH": "2025-12-24T21:21:39.698784", "MEAN_MOTION": 14.24295386, "ECCENTRICITY": 0.0001789, "INCLINATION": 98.8986, "RA_OF_ASC_NODE": 338.7677, "ARG_OF_PERICENTER": 125.5048, "MEAN_ANOMALY": 234.6297, "EPHEMERIS_TYPE": 0, "CLASSIFICATION_TYPE": "U", "NORAD_CAT_ID": 44387, "ELEMENT_SET_NO": 999, "REV_AT_EPOCH": 33648, "BSTAR": -5.1894e-05, "MEAN_MOTION_DOT": -1.66e-06, "MEAN_MOTION_DDOT": 0}, "tle": {"line1": "1 44387U 19038A   25358.89004281 -.00000166  00000+0 -51894-4 0  9997", "line2": "2 44387  98.8986 338.7677 0001789 125.5048 234.6297 14.24295386336488"}}, "geometry": {"type": "Point", "coordinates": [-14.334274525567638, -36.350441933525005]}}, {"type": "Feature", "properties": {"norad_id": 47719, "name": "ARKTIKA-M 1", "group": "weather", "lat": 57.35677537611577, "lon": 134.44323025421676, "alt_km": 33954.30646628625, "timestamp": "2025-12-25T03:55:55.948980+00:00", "meta": {"OBJECT_NAME": "ARKTIKA-M 1", "OBJECT_ID": "2021-016A", "EPOCH": "2025-12-23T01:01:51.743136", "MEAN_MOTION": 2.00630806, "ECCENTRICITY": 0.72093828, "INCLINATION": 63.1759, "RA_OF_ASC_NODE": 82.5898, "ARG_OF_PERICENTER": 269.1646, "MEAN_ANOMALY": 15.5425, "EPHEMERIS_TYPE": 0, "CLASSIFICATION_TYPE": "U", "NORAD_CAT_ID": 47719, "ELEMENT_SET_NO": 999, "REV_AT_EPOCH": 3525, "BSTAR": 0, "MEAN_MOTION_DOT": -6.7e-07, "MEAN_MOTION_DDOT": 0}, "tle": {"line1": "1 47719U 21016A   25357.04295999 -.00000067  00000+0  00000+0 0  9999", "line2": "2 47719  63.1759  82.5898 7209382 269.1646  15.5425  2.00630806 35258"}}, "geometry": {"type": "Point", "coordinates": [134.44323025421676, 57.35677537611577]}}, {"type": "Feature", "properties": {"norad_id": 49008, "name": "FENGYUN 3E", "group": "weather", "lat": 80.02805131576407, "lon": -61.59113168911617, "alt_km": 818.5113028506566, "timestamp": "2025-12-25T03:55:55.948997+00:00", "meta": {"OBJECT_NAME": "FENGYUN 3E", "OBJECT_ID": "2021-062A", "EPOCH": "2025-12-24T20:46:02.798688", "MEAN_MOTION": 14.19880225, "ECCENTRICITY": 9.29e-05, "INCLINATION": 98.7475, "RA_OF_ASC_NODE": 359.2422, "ARG_OF_PERICENTER": 190.6837, "MEAN_ANOMALY": 169.432, "EPHEMERIS_TYPE": 0, "CLASSIFICATION_TYPE": "U", "NORAD_CAT_ID": 49008, "ELEMENT_SET_NO": 999, "REV_AT_EPOCH": 23184, "BSTAR": -0.00010105, "MEAN_MOTION_DOT": -2.58e-06, "MEAN_MOTION_DDOT": 0}, "tle": {"line1": "1 49008U 21062A   25358.86531017 -.00000258  00000+0 -10105-3 0  9992", "line2": "2 49008  98.7475 359.2422 0000929 190.6837 169.4320 14.19880225231847"}}, "geometry": {"type": "Point", "coordinates": [-61.59113168911617, 80.02805131576407]}}, {"type": "Feature", "properties": {"norad_id": 51850, "name": "GOES 18", "group": "weather", "lat": 0.0019984685020574414, "lon": 15.904933790436457, "alt_km": 35785.27835444838, "timestamp": "2025-12-25T03:55:55.949010+00:00", "meta": {"OBJECT_NAME": "GOES 18", "OBJECT_ID": "2022-021A", "EPOCH": "2025-12-24T15:52:17.641056", "MEAN_MOTION": 1.00271126, "ECCENTRICITY": 4.02e-05, "INCLINATION": 0.0049, "RA_OF_ASC_NODE": 240.0602, "ARG_OF_PERICENTER": 79.7127, "MEAN_ANOMALY": 234.7308, "EPHEMERIS_TYPE": 0, "CLASSIFICATION_TYPE": "U", "NORAD_CAT_ID": 51850, "ELEMENT_SET_NO": 999, "REV_AT_EPOCH": 484, "BSTAR": 0, "MEAN_MOTION_DOT": 1.18e-06, "MEAN_MOTION_DDOT": 0}, "tle": {"line1": "1 51850U 22021A   25358.66131529  .00000118  00000+0  00000+0 0  9990", "line2": "2 51850   0.0049 240.0602 0000402  79.7127 234.7308  1.00271126  4840"}}, "geometry": {"type": "Point", "coordinates": [15.904933790436457, 0.0019984685020574414]}}]}